OBJECT_NAME,OBJECT_ID,EPOCH,MEAN_MOTION,ECCENTRICITY,INCLINATION,RA_OF_ASC_NODE,ARG_OF_PERICENTER,MEAN_ANOMALY,EPHEMERIS_TYPE,CLASSIFICATION_TYPE,NORAD_CAT_ID,ELEMENT_SET_NO,REV_AT_EPOCH,BSTAR,MEAN_MOTION_DOT,MEAN_MOTION_DDOT
LEMUR-2-ROUNDTRIPPER,2025-009DG,2026-06-16T03:53:33.603072,15.03779174,.00052483,97.7258,249.8426,133.6191,226.5471,0,U,62711,999,7747,.54090684E-3,.7373E-4,0
LEMUR-2-MYNAMEISJEFF,2025-009DH,2026-06-16T05:27:05.609664,15.03787115,.0003476,97.7305,250.2880,154.4220,205.7178,0,U,62712,999,7748,.50886E-3,.6933E-4,0
LEMUR-2-LEIA-PHILIP,2025-052AN,2026-06-16T14:26:44.173824,14.97318740,.00024911,97.6842,59.5629,211.6089,148.4984,0,U,63246,999,6858,.77694252E-4,.844E-5,0
LEMUR-2-LIA-MARTIN,2025-052AQ,2026-06-16T14:34:17.423904,14.97800806,.00028424,97.6899,60.0426,157.1380,202.9969,0,U,63248,999,6859,.24838733E-3,.286E-4,0
LEMUR-2-DELOITTE-1,2025-052BB,2026-06-16T14:00:10.977696,14.97599846,.00033736,97.6921,60.3474,98.4112,261.7493,0,U,63259,999,6860,.3268347E-3,.3762E-4,0
LEMUR-2-EMERSONROSE,2025-052BD,2026-06-16T10:13:02.756640,14.99075440,.00017702,97.6887,60.7498,66.9493,293.1917,0,U,63261,999,6862,.25431861E-3,.3029E-4,0
LEMUR-2-MARACHE-FRAN,2025-052BE,2026-06-16T14:26:25.533024,15.00097628,.00054268,97.6945,61.2385,25.2278,334.9209,0,U,63262,999,6867,.34572812E-3,.4252E-4,0
LEMUR-2-THEFALCONER,2025-052BG,2026-06-16T14:38:02.215104,14.97386360,.0002762,97.6864,59.9951,35.0720,325.0683,0,U,63264,999,6860,.20424839E-3,.2316E-4,0
LEMUR-2-UNTITLED-SC,2025-061A,2026-06-16T10:15:40.218048,15.13472435,.0016959,97.5631,142.7947,267.5329,92.3961,0,U,63351,999,6747,.20334364E-3,.3582E-4,0
LEMUR-2-ESPERANZA,2025-061B,2026-06-16T11:18:00.853344,15.13567490,.0016541,97.5644,142.9312,266.7352,93.1987,0,U,63352,999,6748,.21483021E-3,.3798E-4,0
LEMUR-2-KREMPEL-BRO2,2025-061C,2026-06-16T10:21:58.968000,15.14002277,.00174641,97.5687,143.4248,258.3871,101.5401,0,U,63353,999,6749,.19170634E-3,.3425E-4,0
LEMUR-2-THERMORAPTOR,2025-061D,2026-06-16T11:31:23.232864,15.14082344,.0017216,97.5694,143.5483,257.1146,102.8163,0,U,63354,999,6750,.22079161E-3,.3964E-4,0
LEMUR-2-NEUROSPICY,2025-061E,2026-06-16T14:00:59.624352,15.14198363,.00149911,97.5622,143.2783,260.5802,99.3735,0,U,63355,999,6752,.17463285E-3,.3128E-4,0
LEMUR-2-TILLINFINITY,2025-061F,2026-06-16T10:06:44.290944,15.14783311,.00163612,97.5605,143.4065,248.0798,111.8694,0,U,63356,999,6752,.22453089E-3,.4112E-4,0
LEMUR-2-KREMPEL-BRO1,2025-061G,2026-06-16T11:03:31.798944,15.14589928,.00169436,97.5608,143.3622,249.2263,110.7153,0,U,63357,999,6752,.19719856E-3,.3584E-4,0
LEMUR-2-LANGER2SPACE,2025-061H,2026-06-16T11:41:29.360832,15.14285407,.00149524,97.5610,143.2023,259.0971,100.8579,0,U,63358,999,6751,.21503113E-3,.3877E-4,0
LEMUR-2-BALTO,2025-052BH,2026-06-16T12:28:18.842592,15.00080681,.00069065,97.6897,61.1360,59.4043,300.7861,0,U,63395,999,6866,.40002802E-3,.4929E-4,0
LEMUR-2-KRISH,2025-135AK,2026-06-16T14:32:56.822208,14.96204740,.00017615,97.7753,282.4860,99.8534,260.2886,0,U,64561,999,5383,.42727452E-3,.476E-4,0
LEMUR-2-HUBBLE-4,2025-135AP,2026-06-16T14:24:24.711264,14.93196463,.00009873,97.7699,281.5133,311.6731,48.4404,0,U,64565,999,5378,.1506167E-3,.1517E-4,0
LEMUR-2-SEJONG-2,2025-135BL,2026-06-16T13:40:06.373344,14.96692417,.00039063,97.7690,282.5945,341.3135,18.7943,0,U,64586,999,5385,.29195045E-3,.3275E-4,0
LEMUR-2-HUBBLE-5,2025-135BT,2026-06-16T13:18:47.825280,14.94134720,.00051529,97.7718,282.1012,356.4337,3.6846,0,U,64840,999,5381,.10952824E-3,.1114E-4,0
LEMUR-2-KARENDARRELL,2025-135BU,2026-06-16T14:01:45.120864,15.00102913,.00096325,97.7684,283.7931,204.3832,155.6937,0,U,64841,999,5392,.50459596E-3,.6239E-4,0
LEMUR-2-LUCILLE-ROSE,2025-135BV,2026-06-16T13:23:55.180320,15.00148096,.00111845,97.7772,283.7859,285.3047,74.6940,0,U,65403,999,4854,.42863674E-3,.5298E-4,0
LEMUR-2-AFFIE-WAUWIE,2025-248C,2026-06-16T03:21:25.708032,15.27115158,.00075209,45.3895,120.6606,77.2231,282.9498,0,U,66295,999,3443,.50637182E-3,.13448E-3,0
LEMUR-2-DEANANDMAEVE,2025-276N,2026-06-16T11:00:33.045120,15.19726300,.00058086,97.4214,240.9462,17.2975,342.8457,0,U,66678,999,3030,.24821638E-3,.5238E-4,0
LEMUR-2-STAS-GORBUK,2025-276W,2026-06-16T11:21:11.765376,15.19375526,.00051698,97.4249,241.0154,17.7266,342.4148,0,U,66686,999,3030,.23623383E-3,.4931E-4,0
LEMUR-2-TEODOR,2025-276DG,2026-06-16T10:58:58.128672,15.21044398,.00021213,97.4154,241.2355,117.3341,242.8111,0,U,66768,999,3033,.21725688E-3,.4755E-4,0
LEMUR-2-LAILA,2025-276DQ,2026-06-16T04:02:41.116416,15.21262532,.00021699,97.4178,241.0710,137.1127,223.0278,0,U,66776,999,3029,.22269177E-3,.4907E-4,0
LEMUR-2-CELIJO-SB-PK,2025-276DW,2026-06-16T04:03:51.083136,14.99967284,.00089872,97.5256,237.9800,136.0312,224.1628,0,U,66781,999,2247,.37199008E-3,.4569E-4,0
