LEMUR-2-ROUNDTRIPPER    
1 62711U 25009DG  26167.16219448  .00007373  00000+0  54091-3 0  9991
2 62711  97.7258 249.8426 0005248 133.6191 226.5471 15.03779174 77471
LEMUR-2-MYNAMEISJEFF    
1 62712U 25009DH  26167.22714826  .00006933  00000+0  50886-3 0  9998
2 62712  97.7305 250.2880 0003476 154.4220 205.7178 15.03787115 77488
LEMUR-2-LEIA-PHILIP     
1 63246U 25052AN  26167.60190016  .00000844  00000+0  77694-4 0  9992
2 63246  97.6842  59.5629 0002491 211.6089 148.4984 14.97318740 68587
LEMUR-2-LIA-MARTIN      
1 63248U 25052AQ  26167.60714611  .00002860  00000+0  24839-3 0  9999
2 63248  97.6899  60.0426 0002842 157.1380 202.9969 14.97800806 68590
LEMUR-2-DELOITTE-1      
1 63259U 25052BB  26167.58346039  .00003762  00000+0  32683-3 0  9991
2 63259  97.6921  60.3474 0003373  98.4112 261.7493 14.97599846 68600
LEMUR-2-EMERSONROSE     
1 63261U 25052BD  26167.42572635  .00003029  00000+0  25432-3 0  9990
2 63261  97.6887  60.7498 0001770  66.9493 293.1917 14.99075440 68628
LEMUR-2-MARACHE-FRAN    
1 63262U 25052BE  26167.60168441  .00004252  00000+0  34573-3 0  9992
2 63262  97.6945  61.2385 0005426  25.2278 334.9209 15.00097628 68674
LEMUR-2-THEFALCONER     
1 63264U 25052BG  26167.60974786  .00002316  00000+0  20425-3 0  9991
2 63264  97.6864  59.9951 0002762  35.0720 325.0683 14.97386360 68609
LEMUR-2-UNTITLED-SC     
1 63351U 25061A   26167.42754882  .00003582  00000+0  20334-3 0  9996
2 63351  97.5631 142.7947 0016959 267.5329  92.3961 15.13472435 67478
LEMUR-2-ESPERANZA       
1 63352U 25061B   26167.47084321  .00003798  00000+0  21483-3 0  9991
2 63352  97.5644 142.9312 0016541 266.7352  93.1987 15.13567490 67489
LEMUR-2-KREMPEL-BRO2    
1 63353U 25061C   26167.43193250  .00003425  00000+0  19171-3 0  9998
2 63353  97.5687 143.4248 0017464 258.3871 101.5401 15.14002277 67493
LEMUR-2-THERMORAPTOR    
1 63354U 25061D   26167.48013001  .00003964  00000+0  22079-3 0  9998
2 63354  97.5694 143.5483 0017216 257.1146 102.8163 15.14082344 67505
LEMUR-2-NEUROSPICY      
1 63355U 25061E   26167.58402343  .00003128  00000+0  17463-3 0  9994
2 63355  97.5622 143.2783 0014991 260.5802  99.3735 15.14198363 67527
LEMUR-2-TILLINFINITY    
1 63356U 25061F   26167.42134596  .00004112  00000+0  22453-3 0  9999
2 63356  97.5605 143.4065 0016361 248.0798 111.8694 15.14783311 67529
LEMUR-2-KREMPEL-BRO1    
1 63357U 25061G   26167.46078471  .00003584  00000+0  19720-3 0  9998
2 63357  97.5608 143.3622 0016943 249.2263 110.7153 15.14589928 67523
LEMUR-2-LANGER2SPACE    
1 63358U 25061H   26167.48714538  .00003877  00000+0  21503-3 0  9999
2 63358  97.5610 143.2023 0014952 259.0971 100.8579 15.14285407 67510
LEMUR-2-BALTO           
1 63395U 25052BH  26167.51966253  .00004929  00000+0  40003-3 0  9992
2 63395  97.6897  61.1360 0006906  59.4043 300.7861 15.00080681 68667
LEMUR-2-KRISH           
1 64561U 25135AK  26167.60621322  .00004760  00000+0  42727-3 0  9993
2 64561  97.7753 282.4860 0001761  99.8534 260.2886 14.96204740 53833
LEMUR-2-HUBBLE-4        
1 64565U 25135AP  26167.60028601  .00001517  00000+0  15062-3 0  9997
2 64565  97.7699 281.5133 0000987 311.6731  48.4404 14.93196463 53787
LEMUR-2-SEJONG-2        
1 64586U 25135BL  26167.56951821  .00003275  00000+0  29195-3 0  9999
2 64586  97.7690 282.5945 0003906 341.3135  18.7943 14.96692417 53854
LEMUR-2-HUBBLE-5        
1 64840U 25135BT  26167.55472020  .00001114  00000+0  10953-3 0  9992
2 64840  97.7718 282.1012 0005152 356.4337   3.6846 14.94134720 53812
LEMUR-2-KARENDARRELL    
1 64841U 25135BU  26167.58455001  .00006239  00000+0  50460-3 0  9996
2 64841  97.7684 283.7931 0009632 204.3832 155.6937 15.00102913 53928
LEMUR-2-LUCILLE-ROSE    
1 65403U 25135BV  26167.55827755  .00005298  00000+0  42864-3 0  9990
2 65403  97.7772 283.7859 0011184 285.3047  74.6940 15.00148096 48540
LEMUR-2-AFFIE-WAUWIE    
1 66295U 25248C   26167.13988088  .00013448  00000+0  50637-3 0  9999
2 66295  45.3895 120.6606 0007520  77.2231 282.9498 15.27115158 34433
LEMUR-2-DEANANDMAEVE    
1 66678U 25276N   26167.45871580  .00005238  00000+0  24822-3 0  9993
2 66678  97.4214 240.9462 0005808  17.2975 342.8457 15.19726300 30304
LEMUR-2-STAS-GORBUK     
1 66686U 25276W   26167.47305284  .00004931  00000+0  23623-3 0  9994
2 66686  97.4249 241.0154 0005169  17.7266 342.4148 15.19375526 30302
LEMUR-2-TEODOR          
1 66768U 25276DG  26167.45761723  .00004755  00000+0  21726-3 0  9993
2 66768  97.4154 241.2355 0002121 117.3341 242.8111 15.21044398 30338
LEMUR-2-LAILA           
1 66776U 25276DQ  26167.16853144  .00004907  00000+0  22269-3 0  9991
2 66776  97.4178 241.0710 0002169 137.1127 223.0278 15.21262532 30292
LEMUR-2-CELIJO-SB-PK    
1 66781U 25276DW  26167.16934124  .00004569  00000+0  37199-3 0  9997
2 66781  97.5256 237.9800 0008987 136.0312 224.1628 14.99967284 22470
